GLOBALSTAR M057 [-]     
1 25943U 99058A   24108.85652118 -.00000051  00000+0  38227-3 0  9996
2 25943  51.9959 115.2429 0002366 215.7434 144.3258 12.24784506114811
GLOBALSTAR M059 [-]     
1 25944U 99058B   24108.78347291 -.00000127  00000+0 -50555-3 0  9995
2 25944  52.0015 278.0076 0000949 133.1768 330.0983 11.99960547522972
GLOBALSTAR M056 [-]     
1 25945U 99058C   24108.82223428  .00000054  00000+0  16475-2 0  9995
2 25945  51.9959 290.7878 0001697  71.5029  31.3835 12.04774573111357
GLOBALSTAR M031 [-]     
1 25946U 99058D   24108.46934046 -.00000135  00000+0 -45156-3 0  9992
2 25946  51.9952 209.5538 0001418  57.2448  24.2169 12.16006655112757
GLOBALSTAR M039 [-]     
1 25961U 99062A   24108.96123632 -.00000045  00000+0  33066-3 0  9996
2 25961  51.9820 123.8293 0002846 123.6644 236.4494 12.62287674126549
GLOBALSTAR M034 [-]     
1 25962U 99062B   24108.93842634 -.00000024  00000+0  90870-3 0  9997
2 25962  51.9902  36.7650 0013997 320.2649 115.5662 11.79427010 88211
GLOBALSTAR M029 [-]     
1 25963U 99062C   24109.16421772 -.00000067  00000+0  23163-3 0  9998
2 25963  51.9783 165.3792 0002300   6.0321  28.3616 11.99876528118158
GLOBALSTAR M061 [-]     
1 25964U 99062D   24108.48887333 -.00000055  00000+0  41625-3 0  9992
2 25964  51.9785 216.3297 0005907 239.1949 201.9265 11.76760693 71066
